NORAD_CAT_ID,OBJECT_NAME,OBJECT_TYPE,EPOCH,MEAN_MOTION,ECCENTRICITY,INCLINATION,RA_OF_ASC_NODE,ARG_OF_PERICENTER,MEAN_ANOMALY,BSTAR,MEAN_MOTION_DOT,MEAN_MOTION_DDOT,TLE_LINE0,TLE_LINE1,TLE_LINE2,SEMIMAJOR_AXIS,PERIOD,APOGEE,PERIGEE,DECAYED
56780.0,STARLINK-5963,PAYLOAD,2024-07-21 21:32:30,14.99136365,0.0002864,70.0007,46.7839,265.239,94.8442,0.00014253,1.643e-05,0.0,0 STARLINK-5963,1 56780U 23078P   24203.89757003  .00001643  00000-0  14253-3 0  9998,2 56780  70.0007  46.7839 0002864 265.2390  94.8442 14.99136365 63430,6947.7,96.055,571.555,567.576,0.0
56780.0,STARLINK-5963,PAYLOAD,2024-07-22 13:33:19,14.99137371,0.0002892,70.0006,45.1,269.681,90.4018,6.1531e-05,6.56e-06,0.0,0 STARLINK-5963,1 56780U 23078P   24204.56481121  .00000656  00000-0  61531-4 0  9993,2 56780  70.0006  45.1000 0002892 269.6810  90.4018 14.99137371 63538,6947.697,96.055,571.572,567.553,0.0
56780.0,STARLINK-5963,PAYLOAD,2024-07-22 21:33:44,14.99143071,0.0002872,70.0006,44.2564,268.715,91.368,0.00010169,1.146e-05,0.0,0 STARLINK-5963,1 56780U 23078P   24204.89842641  .00001146  00000-0  10169-3 0  9992,2 56780  70.0006  44.2564 0002872 268.7150  91.3680 14.99143071 63582,6947.68,96.055,571.54,567.549,0.0
56780.0,STARLINK-5963,PAYLOAD,2024-07-22 23:09:48,14.9914309,0.000284,70.0007,44.0879,267.7832,92.3002,0.00011167,1.267e-05,0.0,0 STARLINK-5963,1 56780U 23078P   24204.96515002  .00001267  00000-0  11167-3 0  9991,2 56780  70.0007  44.0879 0002840 267.7832  92.3002 14.99143090 63851,6947.68,96.055,571.518,567.571,0.0
56780.0,STARLINK-5963,PAYLOAD,2024-07-23 07:10:13,14.9914141,0.0003036,70.0004,43.2446,269.8087,90.2724,2.8303e-05,2.51e-06,0.0,0 STARLINK-5963,1 56780U 23078P   24205.29877191  .00000251  00000-0  28303-4 0  9991,2 56780  70.0004  43.2446 0003036 269.8087  90.2724 14.99141410 63641,6947.685,96.055,571.659,567.44,0.0
56780.0,STARLINK-5963,PAYLOAD,2024-07-23 23:11:04,14.99134173,0.0002889,70.0007,41.5596,266.2783,93.8046,-6.7785e-05,-9.19e-06,0.0,0 STARLINK-5963,1 56780U 23078P   24205.96602022 -.00000919  00000-0 -67785-4 0  9994,2 56780  70.0007  41.5596 0002889 266.2783  93.8046 14.99134173 64005,6947.707,96.055,571.579,567.565,0.0
56780.0,STARLINK-5963,PAYLOAD,2024-07-24 23:12:17,14.99146742,0.0002811,70.0019,39.0324,261.9426,98.1414,5.8627e-05,6.21e-06,0.0,0 STARLINK-5963,1 56780U 23078P   24206.96686792  .00000621  00000-0  58627-4 0  9994,2 56780  70.0019  39.0324 0002811 261.9426  98.1414 14.99146742 64158,6947.668,96.055,571.486,567.58,0.0
56780.0,STARLINK-5963,PAYLOAD,2024-07-25 12:00:57,14.99138363,0.0002385,69.9976,37.6881,282.7531,77.3362,0.00013527,1.555e-05,0.0,0 STARLINK-5963,1 56780U 23078P   24207.50066473  .00001555  00000-0  13527-3 0  9999,2 56780  69.9976  37.6881 0002385 282.7531  77.3362 14.99138363 64233,6947.694,96.055,571.216,567.902,0.0
56780.0,STARLINK-5963,PAYLOAD,2024-07-25 21:37:27,14.99141487,0.0002829,69.9998,36.6758,276.7547,83.3291,-1.0023e-05,-2.16e-06,0.0,0 STARLINK-5963,1 56780U 23078P   24207.90100999 -.00000216  00000-0 -10023-4 0  9999,2 56780  69.9998  36.6758 0002829 276.7547  83.3291 14.99141487 64039,6947.685,96.055,571.515,567.584,0.0
56780.0,STARLINK-5963,PAYLOAD,2024-07-26 12:02:11,14.99139074,0.0002938,70.0014,35.159,272.5558,87.5265,4.3411e-05,4.35e-06,0.0,0 STARLINK-5963,1 56780U 23078P   24208.50152312  .00000435  00000-0  43411-4 0  9990,2 56780  70.0014  35.1590 0002938 272.5558  87.5265 14.99139074 64380,6947.692,96.055,571.598,567.516,0.0
56780.0,STARLINK-5963,PAYLOAD,2024-07-26 18:26:31,14.99142028,0.0002969,70.0008,34.4864,267.8734,92.2086,6.3819e-05,6.84e-06,0.0,0 STARLINK-5963,1 56780U 23078P   24208.76841597  .00000684  00000-0  63819-4 0  9998,2 56780  70.0008  34.4864 0002969 267.8734  92.2086 14.99142028 64169,6947.683,96.055,571.611,567.485,0.0
56780.0,STARLINK-5963,PAYLOAD,2024-07-27 12:03:25,14.99140282,0.0003142,70.0011,32.6343,266.4488,93.6312,3.7502e-07,-8.9e-07,0.0,0 STARLINK-5963,1 56780U 23078P   24209.50238226 -.00000089  00000-0  37502-6 0  9992,2 56780  70.0011  32.6343 0003142 266.4488  93.6312 14.99140282 64538,6947.688,96.055,571.736,567.37,0.0
56780.0,STARLINK-5963,PAYLOAD,2024-07-27 21:39:55,14.99137768,0.0003177,70.0012,31.6235,267.0301,93.0495,-2.7312e-05,-4.26e-06,0.0,0 STARLINK-5963,1 56780U 23078P   24209.90272866 -.00000426  00000-0 -27312-4 0  9996,2 56780  70.0012  31.6235 0003177 267.0301  93.0495 14.99137768 64336,6947.696,96.055,571.768,567.354,0.0
56780.0,STARLINK-5963,PAYLOAD,2024-07-28 12:04:40,14.99136464,0.0003177,69.9989,30.1068,268.6623,91.4173,3.5589e-06,-5e-07,0.0,0 STARLINK-5963,1 56780U 23078P   24210.50324525 -.00000050  00000-0  35589-5 0  9992,2 56780  69.9989  30.1068 0003177 268.6623  91.4173 14.99136464 64683,6947.7,96.055,571.772,567.358,0.0
56780.0,STARLINK-5963,PAYLOAD,2024-07-28 21:41:09,14.99141966,0.0003183,70.0003,29.0956,267.9919,92.0876,2.2616e-05,1.82e-06,0.0,0 STARLINK-5963,1 56780U 23078P   24210.90358538  .00000182  00000-0  22616-4 0  9998,2 56780  70.0003  29.0956 0003183 267.9919  92.0876 14.99141966 64481,6947.683,96.055,571.76,567.337,0.0
56780.0,STARLINK-5963,PAYLOAD,2024-07-29 10:29:49,14.9913978,0.0003165,70.0004,27.7479,267.9871,92.0926,8.0308e-05,8.85e-06,0.0,0 STARLINK-5963,1 56780U 23078P   24211.43737655  .00000885  00000-0  80308-4 0  9990,2 56780  70.0004  27.7479 0003165 267.9871  92.0926 14.99139780 64560,6947.69,96.055,571.754,567.356,0.0
56780.0,STARLINK-5963,PAYLOAD,2024-07-29 20:06:18,14.99142257,0.0003134,70.0006,26.7374,268.3904,91.6897,0.00010103,1.138e-05,0.0,0 STARLINK-5963,1 56780U 23078P   24211.83771823  .00001138  00000-0  10103-3 0  9996,2 56780  70.0006  26.7374 0003134 268.3904  91.6897 14.99142257 64883,6947.682,96.055,571.725,567.37,0.0
56780.0,STARLINK-5963,PAYLOAD,2024-07-29 21:42:23,14.99143238,0.0003133,70.0006,26.5689,268.4382,91.6419,0.00010994,1.246e-05,0.0,0 STARLINK-5963,1 56780U 23078P   24211.90444128  .00001246  00000-0  10994-3 0  9997,2 56780  70.0006  26.5689 0003133 268.4382  91.6419 14.99143238 64633,6947.679,96.055,571.721,567.367,0.0
56780.0,STARLINK-5963,PAYLOAD,2024-07-30 18:31:28,14.99139752,0.00031,70.0009,24.381,264.2357,95.8449,1.7923e-05,1.25e-06,0.0,0 STARLINK-5963,1 56780U 23078P   24212.77185683  .00000125  00000-0  17923-4 0  9996,2 56780  70.0009  24.3810 0003100 264.2357  95.8449 14.99139752 65027,6947.69,96.055,571.709,567.401,0.0
56780.0,STARLINK-5963,PAYLOAD,2024-07-30 21:43:38,14.99141044,0.000303,70.001,24.0435,265.1551,94.9263,3.7218e-05,3.6e-06,0.0,0 STARLINK-5963,1 56780U 23078P   24212.90530352  .00000360  00000-0  37218-4 0  9998,2 56780  70.0010  24.0435 0003030 265.1551  94.9263 14.99141044 64780,6947.686,96.055,571.656,567.446,0.0
56780.0,STARLINK-5963,PAYLOAD,2024-07-31 13:44:28,14.99136979,0.0002907,70.0014,22.3583,270.0718,90.0109,-4.2919e-05,-6.17e-06,0.0,0 STARLINK-5963,1 56780U 23078P   24213.57254856 -.00000617  00000-0 -42919-4 0  9995,2 56780  70.0014  22.3583 0002907 270.0718  90.0109 14.99136979 64889,6947.698,96.055,571.583,567.544,0.0
56780.0,STARLINK-5963,PAYLOAD,2024-07-31 20:08:48,14.99136773,0.0002917,70.0014,21.6845,270.0596,90.0229,-4.1634e-05,-6.01e-06,0.0,0 STARLINK-5963,1 56780U 23078P   24213.83944500 -.00000601  00000-0 -41634-4 0  9992,2 56780  70.0014  21.6845 0002917 270.0596  90.0229 14.99136773 65186,6947.699,96.055,571.591,567.537,0.0
56780.0,STARLINK-5963,PAYLOAD,2024-07-31 21:44:52,14.99137469,0.0002921,70.0014,21.5161,269.8381,90.2444,-3.436e-05,-5.12e-06,0.0,0 STARLINK-5963,1 56780U 23078P   24213.90616840 -.00000512  00000-0 -34360-4 0  9992,2 56780  70.0014  21.5161 0002921 269.8381  90.2444 14.99137469 64935,6947.697,96.055,571.591,567.533,0.0
56780.0,STARLINK-5963,PAYLOAD,2024-08-01 12:09:36,14.99141611,0.0002986,70.0011,19.9997,269.4544,90.6273,8.7516e-05,9.73e-06,0.0,0 STARLINK-5963,1 56780U 23078P   24214.50667761  .00000973  00000-0  87516-4 0  9997,2 56780  70.0011  19.9997 0002986 269.4544  90.6273 14.99141611 65285,6947.684,96.055,571.624,567.475,0.0
56780.0,STARLINK-5963,PAYLOAD,2024-08-01 20:10:01,14.99144755,0.0002955,70.0012,19.1575,269.8022,90.2799,0.00011982,1.367e-05,0.0,0 STARLINK-5963,1 56780U 23078P   24214.84029408  .00001367  00000-0  11982-3 0  9995,2 56780  70.0012  19.1575 0002955 269.8022  90.2799 14.99144755 65079,6947.674,96.055,571.593,567.486,0.0
56780.0,STARLINK-5963,PAYLOAD,2024-08-02 12:10:51,14.99133038,0.0002914,70.0013,17.4727,268.2493,91.8332,3.5605e-05,3.4e-06,0.0,0 STARLINK-5963,1 56780U 23078P   24215.50754368  .00000340  00000-0  35605-4 0  9998,2 56780  70.0013  17.4727 0002914 268.2493  91.8332 14.99133038 65432,6947.711,96.056,571.6,567.551,0.0
56780.0,STARLINK-5963,PAYLOAD,2024-08-02 13:46:56,14.99132306,0.0002914,70.0014,17.3046,266.9901,93.0925,1.1e-05,4e-07,0.0,0 STARLINK-5963,1 56780U 23078P   24215.57426898  .00000040  00000-0  11000-4 0  9999,2 56780  70.0014  17.3046 0002914 266.9901  93.0925 14.99132306 65186,6947.713,96.056,571.602,567.553,0.0
56780.0,STARLINK-5963,PAYLOAD,2024-08-02 20:11:16,14.99133723,0.0002956,70.0015,16.6316,264.1636,95.9186,2.1378e-05,1.67e-06,0.0,0 STARLINK-5963,1 56780U 23078P   24215.84116432  .00000167  00000-0  21378-4 0  9998,2 56780  70.0015  16.6316 0002956 264.1636  95.9186 14.99133723 65229,6947.709,96.055,571.627,567.52,0.0
56780.0,STARLINK-5963,PAYLOAD,2024-08-03 12:12:05,14.99140135,0.0003111,70.0011,14.9468,267.8795,92.2009,-2.3928e-05,-3.85e-06,0.0,0 STARLINK-5963,1 56780U 23078P   24216.50840169 -.00000385  00000-0 -23928-4 0  9990,2 56780  70.0011  14.9468 0003111 267.8795  92.2009 14.99140135 65582,6947.689,96.055,571.715,567.392,0.0
56780.0,STARLINK-5963,PAYLOAD,2024-08-03 13:48:10,14.99140113,0.0003119,70.0011,14.7783,267.8798,92.2004,-2.2547e-05,-3.68e-06,0.0,0 STARLINK-5963,1 56780U 23078P   24216.57512563 -.00000368  00000-0 -22547-4 0  9998,2 56780  70.0011  14.7783 0003119 267.8798  92.2004 14.99140113 65335,6947.689,96.055,571.721,567.387,0.0
